{
  "type": "FeatureCollection",
  "features": [
    {
      "type": "Feature",
      "properties": {
        "norad_id": 27954,
        "name": "GALAXY 13 (HORIZONS-1)",
        "group": "intelsat",
        "lat": -0.8732088254057356,
        "lon": -21.02476882814949,
        "alt_km": 35785.370763278166,
        "timestamp": "2025-12-06T03:35:01.466196+00:00",
        "meta_object_name": "GALAXY 13 (HORIZONS-1)",
        "meta_object_id": "2003-044A",
        "meta_epoch": "2025-12-05T06:08:09.778272",
        "meta_mean_motion": 1.00273342,
        "meta_eccentricity": 0.0002063,
        "meta_inclination": 0.9162,
        "meta_ra_of_asc_node": 86.5663,
        "meta_arg_of_pericenter": 164.1755,
        "meta_mean_anomaly": 125.6214,
        "meta_ephemeris_type": 0,
        "meta_classification_type": "U",
        "meta_norad_cat_id": 27954,
        "meta_element_set_no": 999,
        "meta_rev_at_epoch": 4462,
        "meta_bstar": 0,
        "meta_mean_motion_dot": 1.44e-06,
        "meta_mean_motion_ddot": 0,
        "tle_line1": "1 27954U 03044A   25339.25566873  .00000144  00000+0  00000+0 0  9999",
        "tle_line2": "2 27954   0.9162  86.5663 0002063 164.1755 125.6214  1.00273342 44620"
      },
      "geometry": {
        "type": "Point",
        "coordinates": [
          -21.02476882814949,
          -0.8732088254057356
        ]
      }
    },
    {
      "type": "Feature",
      "properties": {
        "norad_id": 28358,
        "name": "INTELSAT 10-02",
        "group": "intelsat",
        "lat": 0.035094923411830466,
        "lon": 127.93616615540776,
        "alt_km": 35790.57802021254,
        "timestamp": "2025-12-06T03:35:01.466208+00:00",
        "meta_object_name": "INTELSAT 10-02",
        "meta_object_id": "2004-022A",
        "meta_epoch": "2025-12-04T23:59:43.819872",
        "meta_mean_motion": 1.00270714,
        "meta_eccentricity": 0.00011376,
        "meta_inclination": 0.0405,
        "meta_ra_of_asc_node": 80.5875,
        "meta_arg_of_pericenter": 199.5905,
        "meta_mean_anomaly": 152.825,
        "meta_ephemeris_type": 0,
        "meta_classification_type": "U",
        "meta_norad_cat_id": 28358,
        "meta_element_set_no": 999,
        "meta_rev_at_epoch": 7860,
        "meta_bstar": 0,
        "meta_mean_motion_dot": 2e-08,
        "meta_mean_motion_ddot": 0,
        "tle_line1": "1 28358U 04022A   25338.99981273  .00000002  00000+0  00000+0 0  9993",
        "tle_line2": "2 28358   0.0405  80.5875 0001137 199.5905 152.8250  1.00270714 78606"
      },
      "geometry": {
        "type": "Point",
        "coordinates": [
          127.93616615540776,
          0.035094923411830466
        ]
      }
    },
    {
      "type": "Feature",
      "properties": {
        "norad_id": 28626,
        "name": "XM-3 (RHYTHM)",
        "group": "intelsat",
        "lat": -0.0599754868492027,
        "lon": -85.48495911078106,
        "alt_km": 36157.65672452022,
        "timestamp": "2025-12-06T03:35:01.466221+00:00",
        "meta_object_name": "XM-3 (RHYTHM)",
        "meta_object_id": "2005-008A",
        "meta_epoch": "2025-12-05T06:22:38.609760",
        "meta_mean_motion": 0.98954793,
        "meta_eccentricity": 0.00010619,
        "meta_inclination": 0.1543,
        "meta_ra_of_asc_node": 80.9692,
        "meta_arg_of_pericenter": 260.0086,
        "meta_mean_anomaly": 338.7855,
        "meta_ephemeris_type": 0,
        "meta_classification_type": "U",
        "meta_norad_cat_id": 28626,
        "meta_element_set_no": 999,
        "meta_rev_at_epoch": 4067,
        "meta_bstar": 0,
        "meta_mean_motion_dot": -2.63e-06,
        "meta_mean_motion_ddot": 0,
        "tle_line1": "1 28626U 05008A   25339.26572465 -.00000263  00000+0  00000+0 0  9996",
        "tle_line2": "2 28626   0.1543  80.9692 0001061 260.0086 338.7855  0.98954793 40673"
      },
      "geometry": {
        "type": "Point",
        "coordinates": [
          -85.48495911078106,
          -0.0599754868492027
        ]
      }
    },
    {
      "type": "Feature",
      "properties": {
        "norad_id": 28659,
        "name": "DIRECTV 8",
        "group": "intelsat",
        "lat": 0.027435571872452783,
        "lon": 9.922027435235186,
        "alt_km": 35792.42151286841,
        "timestamp": "2025-12-06T03:35:01.466233+00:00",
        "meta_object_name": "DIRECTV 8",
        "meta_object_id": "2005-019A",
        "meta_epoch": "2025-12-05T06:16:53.940288",
        "meta_mean_motion": 1.00270759,
        "meta_eccentricity": 0.00032547,
        "meta_inclination": 0.0184,
        "meta_ra_of_asc_node": 330.5151,
        "meta_arg_of_pericenter": 283.124,
        "meta_mean_anomaly": 155.8596,
        "meta_ephemeris_type": 0,
        "meta_classification_type": "U",
        "meta_norad_cat_id": 28659,
        "meta_element_set_no": 999,
        "meta_rev_at_epoch": 7512,
        "meta_bstar": 0,
        "meta_mean_motion_dot": 1.3e-07,
        "meta_mean_motion_ddot": 0,
        "tle_line1": "1 28659U 05019A   25339.26173542  .00000013  00000+0  00000+0 0  9999",
        "tle_line2": "2 28659   0.0184 330.5151 0003254 283.1240 155.8596  1.00270759 75122"
      },
      "geometry": {
        "type": "Point",
        "coordinates": [
          9.922027435235186,
          0.027435571872452783
        ]
      }
    },
    {
      "type": "Feature",
      "properties": {
        "norad_id": 28702,
        "name": "GALAXY 28 (G-28)",
        "group": "intelsat",
        "lat": -1.8174309511194657,
        "lon": 40.301803998076736,
        "alt_km": 35795.66203920267,
        "timestamp": "2025-12-06T03:35:01.466245+00:00",
        "meta_object_name": "GALAXY 28 (G-28)",
        "meta_object_id": "2005-022A",
        "meta_epoch": "2025-12-05T03:00:12.788064",
        "meta_mean_motion": 1.00272008,
        "meta_eccentricity": 0.00026403,
        "meta_inclination": 2.7992,
        "meta_ra_of_asc_node": 81.3702,
        "meta_arg_of_pericenter": 172.2374,
        "meta_mean_anomaly": 136.9404,
        "meta_ephemeris_type": 0,
        "meta_classification_type": "U",
        "meta_norad_cat_id": 28702,
        "meta_element_set_no": 999,
        "meta_rev_at_epoch": 5002,
        "meta_bstar": 0,
        "meta_mean_motion_dot": -1.76e-06,
        "meta_mean_motion_ddot": 0,
        "tle_line1": "1 28702U 05022A   25339.12514801 -.00000176  00000+0  00000+0 0  9995",
        "tle_line2": "2 28702   2.7992  81.3702 0002640 172.2374 136.9404  1.00272008 50023"
      },
      "geometry": {
        "type": "Point",
        "coordinates": [
          40.301803998076736,
          -1.8174309511194657
        ]
      }
    },
    {
      "type": "Feature",
      "properties": {
        "norad_id": 29236,
        "name": "GALAXY 16 (G-16)",
        "group": "intelsat",
        "lat": 0.008901072954679495,
        "lon": 29.954444515105898,
        "alt_km": 35794.686894102095,
        "timestamp": "2025-12-06T03:35:01.466258+00:00",
        "meta_object_name": "GALAXY 16 (G-16)",
        "meta_object_id": "2006-023A",
        "meta_epoch": "2025-12-05T04:26:38.705280",
        "meta_mean_motion": 1.00271125,
        "meta_eccentricity": 0.00029875,
        "meta_inclination": 0.0254,
        "meta_ra_of_asc_node": 207.5655,
        "meta_arg_of_pericenter": 50.8444,
        "meta_mean_anomaly": 143.4894,
        "meta_ephemeris_type": 0,
        "meta_classification_type": "U",
        "meta_norad_cat_id": 29236,
        "meta_element_set_no": 999,
        "meta_rev_at_epoch": 7102,
        "meta_bstar": 0,
        "meta_mean_motion_dot": -1.15e-06,
        "meta_mean_motion_ddot": 0,
        "tle_line1": "1 29236U 06023A   25339.18517020 -.00000115  00000+0  00000+0 0  9995",
        "tle_line2": "2 29236   0.0254 207.5655 0002987  50.8444 143.4894  1.00271125 71028"
      },
      "geometry": {
        "type": "Point",
        "coordinates": [
          29.954444515105898,
          0.008901072954679495
        ]
      }
    },
    {
      "type": "Feature",
      "properties": {
        "norad_id": 29494,
        "name": "DIRECTV 9S",
        "group": "intelsat",
        "lat": -1.5632711904599437,
        "lon": 27.77274486521233,
        "alt_km": 35796.06583551622,
        "timestamp": "2025-12-06T03:35:01.466276+00:00",
        "meta_object_name": "DIRECTV 9S",
        "meta_object_id": "2006-043A",
        "meta_epoch": "2025-12-05T04:26:38.705280",
        "meta_mean_motion": 1.00270516,
        "meta_eccentricity": 0.00032569,
        "meta_inclination": 1.9195,
        "meta_ra_of_asc_node": 83.2899,
        "meta_arg_of_pericenter": 171.4637,
        "meta_mean_anomaly": 144.9464,
        "meta_ephemeris_type": 0,
        "meta_classification_type": "U",
        "meta_norad_cat_id": 29494,
        "meta_element_set_no": 999,
        "meta_rev_at_epoch": 4943,
        "meta_bstar": 0,
        "meta_mean_motion_dot": -1.02e-06,
        "meta_mean_motion_ddot": 0,
        "tle_line1": "1 29494U 06043A   25339.18517020 -.00000102  00000+0  00000+0 0  9999",
        "tle_line2": "2 29494   1.9195  83.2899 0003256 171.4637 144.9464  1.00270516 49433"
      },
      "geometry": {
        "type": "Point",
        "coordinates": [
          27.77274486521233,
          -1.5632711904599437
        ]
      }
    }
  ]
}